{
    "links": {
        "self": "http://www.neowsapp.com/rest/v1/neo/54016783?api_key=iIulBulltgU6a56xZRHN4H3l9WmuAYTsLGpBGhQ2"
    },
    "id": "54016783",
    "neo_reference_id": "54016783",
    "name": "(2020 HN7)",
    "designation": "2020 HN7",
    "nasa_jpl_url": "http://ssd.jpl.nasa.gov/sbdb.cgi?sstr=54016783",
    "absolute_magnitude_h": 24.451,
    "estimated_diameter": {
        "kilometers": {
            "estimated_diameter_min": 0.0342259078,
            "estimated_diameter_max": 0.0765314565
        },
        "meters": {
            "estimated_diameter_min": 34.2259078412,
            "estimated_diameter_max": 76.5314565245
        },
        "miles": {
            "estimated_diameter_min": 0.0212669866,
            "estimated_diameter_max": 0.0475544277
        },
        "feet": {
            "estimated_diameter_min": 112.2897274816,
            "estimated_diameter_max": 251.0874638238
        }
    },
    "is_potentially_hazardous_asteroid": false,
    "close_approach_data": [
        {
            "close_approach_date": "2020-04-22",
            "close_approach_date_full": "2020-Apr-22 22:35",
            "epoch_date_close_approach": 1587594900000,
            "relative_velocity": {
                "kilometers_per_second": "17.9218972598",
                "kilometers_per_hour": "64518.8301351464",
                "miles_per_hour": "40089.4919803636"
            },
            "miss_distance": {
                "astronomical": "0.0669371762",
                "lunar": "26.0385615418",
                "kilometers": "10013658.983334694",
                "miles": "6222199.1650350172"
            },
            "orbiting_body": "Earth"
        }
    ],
    "orbital_data": {
        "orbit_id": "2",
        "orbit_determination_date": "2020-04-29 06:54:11",
        "first_observation_date": "2020-04-26",
        "last_observation_date": "2020-04-29",
        "data_arc_in_days": 3,
        "observations_used": 35,
        "orbit_uncertainty": "9",
        "minimum_orbit_intersection": ".0470932",
        "jupiter_tisserand_invariant": "3.775",
        "epoch_osculation": "2458966.5",
        "eccentricity": ".5374306579815098",
        "semi_major_axis": "1.829374057639507",
        "inclination": "21.50334109514858",
        "ascending_node_longitude": "215.1421507356022",
        "orbital_period": "903.758096346563",
        "perihelion_distance": ".8462123541480026",
        "perihelion_argument": "293.0118309683775",
        "aphelion_distance": "2.812535761131012",
        "perihelion_time": "2458917.046273557187",
        "mean_anomaly": "19.69923322555293",
        "mean_motion": ".3983366804184637",
        "equinox": "J2000",
        "orbit_class": {
            "orbit_class_type": "APO",
            "orbit_class_description": "Near-Earth asteroid orbits which cross the Earth’s orbit similar to that of 1862 Apollo",
            "orbit_class_range": "a (semi-major axis) > 1.0 AU; q (perihelion) < 1.017 AU"
        }
    },
    "is_sentry_object": false
}